ASTROCAST-0403          
1 55111U 23001DG  26068.82333059  .00013959  00000+0  51317-3 0  9990
2 55111  97.5604 161.3228 0004771 338.0704  22.0330 15.28004949129377
STARLINK-32740          
1 62754U 25014V   26068.24284773  .00039875  00000+0  14503-2 0  9991
2 62754  43.0001 156.5188 0001842 269.0252  91.0389 15.27588843 63199
